{"type": "FeatureCollection", "features": [ {"type": "Feature", "properties": {"norad_id": 44476, "name": "INTELSAT 39 (IS-39)", "group": "intelsat", "lat": -0.01611557718747192, "lon": -54.32889112187884, "alt_km": 35790.074503581665, "timestamp": "2025-12-11T10:53:15.553599+00:00", "meta": {"OBJECT_NAME": "INTELSAT 39 (IS-39)", "OBJECT_ID": "2019-049B", "EPOCH": "2025-12-11T03:32:04.608384", "MEAN_MOTION": 1.00270725, "ECCENTRICITY": 9.43e-05, "INCLINATION": 0.0189, "RA_OF_ASC_NODE": 328.3632, "ARG_OF_PERICENTER": 178.0563, "MEAN_ANOMALY": 48.6555, "EPHEMERIS_TYPE": 0, "CLASSIFICATION_TYPE": "U", "NORAD_CAT_ID": 44476, "ELEMENT_SET_NO": 999, "REV_AT_EPOCH": 2324, "BSTAR": 0, "MEAN_MOTION_DOT": 3.9e-07, "MEAN_MOTION_DDOT": 0}, "tle": {"line1": "1 44476U 19049B   25345.14727556  .00000039  00000+0  00000+0 0  9994", "line2": "2 44476   0.0189 328.3632 0000943 178.0563  48.6555  1.00270725 23246"}}, "geometry": {"type": "Point", "coordinates": [-54.32889112187884, -0.01611557718747192]}}, {"type": "Feature", "properties": {"norad_id": 46114, "name": "GALAXY 30 (G-30)", "group": "intelsat", "lat": 0.018894750346238075, "lon": 118.70769586456271, "alt_km": 35793.58745516686, "timestamp": "2025-12-11T10:53:15.553610+00:00", "meta": {"OBJECT_NAME": "GALAXY 30 (G-30)", "OBJECT_ID": "2020-056C", "EPOCH": "2025-12-11T04:35:38.717376", "MEAN_MOTION": 1.00272338, "ECCENTRICITY": 0.0002306, "INCLINATION": 0.0165, "RA_OF_ASC_NODE": 328.5653, "ARG_OF_PERICENTER": 292.0277, "MEAN_ANOMALY": 123.4727, "EPHEMERIS_TYPE": 0, "CLASSIFICATION_TYPE": "U", "NORAD_CAT_ID": 46114, "ELEMENT_SET_NO": 999, "REV_AT_EPOCH": 1940, "BSTAR": 0, "MEAN_MOTION_DOT": 4.3e-07, "MEAN_MOTION_DDOT": 0}, "tle": {"line1": "1 46114U 20056C   25345.19142034  .00000043  00000+0  00000+0 0  9997", "line2": "2 46114   0.0165 328.5653 0002306 292.0277 123.4727  1.00272338 19408"}}, "geometry": {"type": "Point", "coordinates": [118.70769586456271, 0.018894750346238075]}}, {"type": "Feature", "properties": {"norad_id": 54026, "name": "GALAXY 33 (G-33)", "group": "intelsat", "lat": 0.0181226385716592, "lon": 110.71325302307405, "alt_km": 35793.26051333998, "timestamp": "2025-12-11T10:53:15.553622+00:00", "meta": {"OBJECT_NAME": "GALAXY 33 (G-33)", "OBJECT_ID": "2022-128A", "EPOCH": "2025-12-11T04:43:38.646048", "MEAN_MOTION": 1.00271089, "ECCENTRICITY": 0.0002044, "INCLINATION": 0.0115, "RA_OF_ASC_NODE": 323.4657, "ARG_OF_PERICENTER": 291.2943, "MEAN_ANOMALY": 123.315, "EPHEMERIS_TYPE": 0, "CLASSIFICATION_TYPE": "U", "NORAD_CAT_ID": 54026, "ELEMENT_SET_NO": 999, "REV_AT_EPOCH": 1185, "BSTAR": 0, "MEAN_MOTION_DOT": 8.5e-07, "MEAN_MOTION_DDOT": 0}, "tle": {"line1": "1 54026U 22128A   25345.19697507  .00000085  00000+0  00000+0 0  9996", "line2": "2 54026   0.0115 323.4657 0002044 291.2943 123.3150  1.00271089 11854"}}, "geometry": {"type": "Point", "coordinates": [110.71325302307405, 0.0181226385716592]}}, {"type": "Feature", "properties": {"norad_id": 54027, "name": "GALAXY 34 (G-34)", "group": "intelsat", "lat": 0.027624706195281377, "lon": 114.77960528152654, "alt_km": 35791.45492815829, "timestamp": "2025-12-11T10:53:15.553634+00:00", "meta": {"OBJECT_NAME": "GALAXY 34 (G-34)", "OBJECT_ID": "2022-128B", "EPOCH": "2025-12-11T04:35:38.717376", "MEAN_MOTION": 1.00269657, "ECCENTRICITY": 0.0001485, "INCLINATION": 0.0228, "RA_OF_ASC_NODE": 336.4387, "ARG_OF_PERICENTER": 278.067, "MEAN_ANOMALY": 125.6291, "EPHEMERIS_TYPE": 0, "CLASSIFICATION_TYPE": "U", "NORAD_CAT_ID": 54027, "ELEMENT_SET_NO": 999, "REV_AT_EPOCH": 1202, "BSTAR": 0, "MEAN_MOTION_DOT": 0, "MEAN_MOTION_DDOT": 0}, "tle": {"line1": "1 54027U 22128B   25345.19142034  .00000000  00000+0  00000+0 0  9994", "line2": "2 54027   0.0228 336.4387 0001485 278.0670 125.6291  1.00269657 12021"}}, "geometry": {"type": "Point", "coordinates": [114.77960528152654, 0.027624706195281377]}}, {"type": "Feature", "properties": {"norad_id": 54243, "name": "GALAXY 31 (G-31)", "group": "intelsat", "lat": -0.0005485175837784884, "lon": 122.72375637051591, "alt_km": 35792.51709559398, "timestamp": "2025-12-11T10:53:15.553646+00:00", "meta": {"OBJECT_NAME": "GALAXY 31 (G-31)", "OBJECT_ID": "2022-153A", "EPOCH": "2025-12-10T23:14:20.350176", "MEAN_MOTION": 1.00272485, "ECCENTRICITY": 0.0001839, "INCLINATION": 0.0145, "RA_OF_ASC_NODE": 258.162, "ARG_OF_PERICENTER": 13.4578, "MEAN_ANOMALY": 35.9092, "EPHEMERIS_TYPE": 0, "CLASSIFICATION_TYPE": "U", "NORAD_CAT_ID": 54243, "ELEMENT_SET_NO": 999, "REV_AT_EPOCH": 524, "BSTAR": 0, "MEAN_MOTION_DOT": 1.8e-07, "MEAN_MOTION_DDOT": 0}, "tle": {"line1": "1 54243U 22153A   25344.96829109  .00000018  00000+0  00000+0 0  9990", "line2": "2 54243   0.0145 258.1620 0001839  13.4578  35.9092  1.00272485  5241"}}, "geometry": {"type": "Point", "coordinates": [122.72375637051591, -0.0005485175837784884]}}, {"type": "Feature", "properties": {"norad_id": 54244, "name": "GALAXY 32 (G-32)", "group": "intelsat", "lat": 0.0041833972710391895, "lon": 152.70274488073892, "alt_km": 35796.33421833839, "timestamp": "2025-12-11T10:53:15.553658+00:00", "meta": {"OBJECT_NAME": "GALAXY 32 (G-32)", "OBJECT_ID": "2022-153B", "EPOCH": "2025-12-10T11:23:53.431008", "MEAN_MOTION": 1.00269631, "ECCENTRICITY": 0.00024863, "INCLINATION": 0.0094, "RA_OF_ASC_NODE": 343.9176, "ARG_OF_PERICENTER": 325.4249, "MEAN_ANOMALY": 210.0765, "EPHEMERIS_TYPE": 0, "CLASSIFICATION_TYPE": "U", "NORAD_CAT_ID": 54244, "ELEMENT_SET_NO": 999, "REV_AT_EPOCH": 1125, "BSTAR": 0, "MEAN_MOTION_DOT": -1.7e-06, "MEAN_MOTION_DDOT": 0}, "tle": {"line1": "1 54244U 22153B   25344.47492397 -.00000170  00000+0  00000+0 0  9992", "line2": "2 54244   0.0094 343.9176 0002486 325.4249 210.0765  1.00269631 11254"}}, "geometry": {"type": "Point", "coordinates": [152.70274488073892, 0.0041833972710391895]}}, {"type": "Feature", "properties": {"norad_id": 54741, "name": "GALAXY 35 (G-35)", "group": "intelsat", "lat": -0.011077137201099915, "lon": 150.60792626420064, "alt_km": 35790.82264185814, "timestamp": "2025-12-11T10:53:15.553670+00:00", "meta": {"OBJECT_NAME": "GALAXY 35 (G-35)", "OBJECT_ID": "2022-170A", "EPOCH": "2025-12-11T02:47:46.349952", "MEAN_MOTION": 1.00271264, "ECCENTRICITY": 0.0002547, "INCLINATION": 0.0166, "RA_OF_ASC_NODE": 263.584, "ARG_OF_PERICENTER": 2.2053, "MEAN_ANOMALY": 123.1459, "EPHEMERIS_TYPE": 0, "CLASSIFICATION_TYPE": "U", "NORAD_CAT_ID": 54741, "ELEMENT_SET_NO": 999, "REV_AT_EPOCH": 1100, "BSTAR": 0, "MEAN_MOTION_DOT": -1.57e-06, "MEAN_MOTION_DDOT": 0}, "tle": {"line1": "1 54741U 22170A   25345.11650868 -.00000157  00000+0  00000+0 0  9999", "line2": "2 54741   0.0166 263.5840 0002547   2.2053 123.1459  1.00271264 11004"}}, "geometry": {"type": "Point", "coordinates": [150.60792626420064, -0.011077137201099915]}}, {"type": "Feature", "properties": {"norad_id": 54742, "name": "GALAXY 36 (G-36)", "group": "intelsat", "lat": 0.014205260094876571, "lon": 154.7219449861828, "alt_km": 35787.002874016216, "timestamp": "2025-12-11T10:53:15.553681+00:00", "meta": {"OBJECT_NAME": "GALAXY 36 (G-36)", "OBJECT_ID": "2022-170B", "EPOCH": "2025-12-11T02:48:53.741952", "MEAN_MOTION": 1.00272471, "ECCENTRICITY": 3.89e-05, "INCLINATION": 0.0136, "RA_OF_ASC_NODE": 33.2733, "ARG_OF_PERICENTER": 253.3407, "MEAN_ANOMALY": 106.6921, "EPHEMERIS_TYPE": 0, "CLASSIFICATION_TYPE": "U", "NORAD_CAT_ID": 54742, "ELEMENT_SET_NO": 999, "REV_AT_EPOCH": 1088, "BSTAR": 0, "MEAN_MOTION_DOT": -1.8e-06, "MEAN_MOTION_DDOT": 0}, "tle": {"line1": "1 54742U 22170B   25345.11728868 -.00000180  00000+0  00000+0 0  9992", "line2": "2 54742   0.0136  33.2733 0000389 253.3407 106.6921  1.00272471 10885"}}, "geometry": {"type": "Point", "coordinates": [154.7219449861828, 0.014205260094876571]}}, {"type": "Feature", "properties": {"norad_id": 57493, "name": "GALAXY 37 (G-37)", "group": "intelsat", "lat": 0.020153559378375867, "lon": 116.71852670903046, "alt_km": 35794.12473074098, "timestamp": "2025-12-11T10:53:15.553693+00:00", "meta": {"OBJECT_NAME": "GALAXY 37 (G-37)", "OBJECT_ID": "2023-112A", "EPOCH": "2025-12-10T23:12:35.516736", "MEAN_MOTION": 1.00272279, "ECCENTRICITY": 0.0002268, "INCLINATION": 0.0079, "RA_OF_ASC_NODE": 18.4049, "ARG_OF_PERICENTER": 247.2478, "MEAN_ANOMALY": 35.4359, "EPHEMERIS_TYPE": 0, "CLASSIFICATION_TYPE": "U", "NORAD_CAT_ID": 57493, "ELEMENT_SET_NO": 999, "REV_AT_EPOCH": 865, "BSTAR": 0, "MEAN_MOTION_DOT": 5.3e-07, "MEAN_MOTION_DDOT": 0}, "tle": {"line1": "1 57493U 23112A   25344.96707774  .00000053  00000+0  00000+0 0  9998", "line2": "2 57493   0.0079  18.4049 0002268 247.2478  35.4359  1.00272279  8652"}}, "geometry": {"type": "Point", "coordinates": [116.71852670903046, 0.020153559378375867]}}]}